{
    "links": {
        "self": "http://www.neowsapp.com/rest/v1/neo/3791334?api_key=iIulBulltgU6a56xZRHN4H3l9WmuAYTsLGpBGhQ2"
    },
    "id": "3791334",
    "neo_reference_id": "3791334",
    "name": "(2017 XK60)",
    "designation": "2017 XK60",
    "nasa_jpl_url": "http://ssd.jpl.nasa.gov/sbdb.cgi?sstr=3791334",
    "absolute_magnitude_h": 21.1,
    "estimated_diameter": {
        "kilometers": {
            "estimated_diameter_min": 0.160160338,
            "estimated_diameter_max": 0.358129403
        },
        "meters": {
            "estimated_diameter_min": 160.1603379786,
            "estimated_diameter_max": 358.1294030194
        },
        "miles": {
            "estimated_diameter_min": 0.0995189894,
            "estimated_diameter_max": 0.2225312253
        },
        "feet": {
            "estimated_diameter_min": 525.4604432536,
            "estimated_diameter_max": 1174.9652706022
        }
    },
    "is_potentially_hazardous_asteroid": false,
    "close_approach_data": [
        {
            "close_approach_date": "2017-11-22",
            "close_approach_date_full": "2017-Nov-22 11:03",
            "epoch_date_close_approach": 1511348580000,
            "relative_velocity": {
                "kilometers_per_second": "13.6715671634",
                "kilometers_per_hour": "49217.6417883494",
                "miles_per_hour": "30581.9285878775"
            },
            "miss_distance": {
                "astronomical": "0.3764986307",
                "lunar": "146.4579673423",
                "kilometers": "56323393.210636609",
                "miles": "34997733.6746148442"
            },
            "orbiting_body": "Earth"
        }
    ],
    "orbital_data": {
        "orbit_id": "4",
        "orbit_determination_date": "2020-09-08 06:50:09",
        "first_observation_date": "2017-11-28",
        "last_observation_date": "2017-12-22",
        "data_arc_in_days": 24,
        "observations_used": 30,
        "orbit_uncertainty": "6",
        "minimum_orbit_intersection": ".37134",
        "jupiter_tisserand_invariant": "2.830",
        "epoch_osculation": "2459000.5",
        "eccentricity": ".5987253763991371",
        "semi_major_axis": "3.062190356370192",
        "inclination": "23.06315002571635",
        "ascending_node_longitude": "86.75124737595272",
        "orbital_period": "1957.251810858688",
        "perihelion_distance": "1.228779282646641",
        "perihelion_argument": "301.8765638538315",
        "aphelion_distance": "4.895601430093743",
        "perihelion_time": "2458049.692250407762",
        "mean_anomaly": "174.8833685855861",
        "mean_motion": ".1839313664203791",
        "equinox": "J2000",
        "orbit_class": {
            "orbit_class_type": "AMO",
            "orbit_class_description": "Near-Earth asteroid orbits similar to that of 1221 Amor",
            "orbit_class_range": "1.017 AU < q (perihelion) < 1.3 AU"
        }
    },
    "is_sentry_object": false
}